KUIPER-00016            
1 63732U 25088J   25238.75194368  .00000997  00000+0  16043-3 0  9998
2 63732  51.8986 253.6111 0011045 143.7896 216.3816 14.79825164 18461
KUIPER-00018            
1 63733U 25088K   25238.72255632 -.00211135  00000+0 -13719-1 0  9993
2 63733  51.8798 244.2443 0009853 158.2928 201.8466 15.08554896 18596
KUIPER-00019            
1 63734U 25088L   25238.91671296 -.00704658  00000+0 -51487-1 0  9994
2 63734  51.9105 242.1747 0008246 164.8580  35.2732 15.05804975  5613
KUIPER-00020            
1 63735U 25088M   25238.91671296 -.00104752  00000+0 -94506-2 0  9994
2 63735  51.8936 244.9972 0007810 151.8561   1.3936 14.95585583  3354
KUIPER-00021            
1 63736U 25088N   25238.91671296 -.00016369  00000+0 -14320-2 0  9997
2 63736  51.8864 245.8872 0003815 150.5310  18.5571 14.95794530  4713
KUIPER-00023            
1 63737U 25088P   25238.91671296 -.00019111  00000+0 -18876-2 0  9996
2 63737  51.8923 247.1611 0009121 164.6205 115.1070 14.91102789  5827
KUIPER-00024            
1 63738U 25088Q   25238.91671296 -.00829252  00000+0 -41878-1 0  9999
2 63738  51.8794 238.8480 0002132 152.4658 176.9742 15.19436002  5692
KUIPER-00025            
1 63739U 25088R   25238.91671296 -.00154000  00000+0 -12849-1 0  9998
2 63739  51.8911 243.6984 0009196 147.8355 276.7228 14.98897132  3974
